[{"OBJECT_NAME":"STARLINK-5661","OBJECT_ID":"2023-013N","EPOCH":"2026-03-08T23:49:05.163168","MEAN_MOTION":15.02535792,"ECCENTRICITY":0.00017466,"INCLINATION":43.0055,"RA_OF_ASC_NODE":304.1967,"ARG_OF_PERICENTER":251.6664,"MEAN_ANOMALY":108.3988,"EPHEMERIS_TYPE":0,"CLASSIFICATION_TYPE":"U","NORAD_CAT_ID":55343,"ELEMENT_SET_NO":999,"REV_AT_EPOCH":17160,"BSTAR":-1.7246585e-5,"MEAN_MOTION_DOT":-4.37e-6,"MEAN_MOTION_DDOT":0},{"OBJECT_NAME":"CZ-6A DEB","OBJECT_ID":"2022-151ACK","EPOCH":"2026-03-09T17:07:55.484832","MEAN_MOTION":14.91029585,"ECCENTRICITY":0.00541971,"INCLINATION":98.6318,"RA_OF_ASC_NODE":144.964,"ARG_OF_PERICENTER":183.961,"MEAN_ANOMALY":176.1184,"EPHEMERIS_TYPE":0,"CLASSIFICATION_TYPE":"U","NORAD_CAT_ID":56267,"ELEMENT_SET_NO":999,"REV_AT_EPOCH":16429,"BSTAR":0.0040603804,"MEAN_MOTION_DOT":0.00041466,"MEAN_MOTION_DDOT":0}]
